start=new Date('2023-02-12T00:00:00.000Z').valueOf();
sats=[{"EPHEMERIS_TYPE":"0","RCS_SIZE":"LARGE","MEAN_ANOMALY":"244.6575","CENTER_NAME":"EARTH","ELEMENT_SET_NO":"999","CLASSIFICATION_TYPE":"U","TLE_LINE1":"1 54085U 22136AL  23042.78129127  .00032308  00000-0  20380-2 0  9995","NORAD_CAT_ID":"54085","ECCENTRICITY":"0.00014070","SEMIMAJOR_AXIS":"6917.839","INCLINATION":"53.2177","BSTAR":"0.00203800000000","OBJECT_TYPE":"PAYLOAD","FILE":"3786577","REF_FRAME":"TEME","REV_AT_EPOCH":"1761","SITE":"AFETR","DECAY_DATE":null,"GP_ID":"225186921","PERIAPSIS":"538.731","APOAPSIS":"540.678","TLE_LINE2":"2 54085  53.2177 330.5878 0001407 115.4563 244.6575 15.08853408 17610","COUNTRY_CODE":"US","OBJECT_ID":"2022-136AL","ARG_OF_PERICENTER":"115.4563","RA_OF_ASC_NODE":"330.5878","MEAN_MOTION_DDOT":"0.0000000000000","TIME_SYSTEM":"UTC","LAUNCH_DATE":"2022-10-20","MEAN_MOTION_DOT":"0.00032308","EPOCH":"2023-02-11T18:45:03.565728","MEAN_ELEMENT_THEORY":"SGP4","MEAN_MOTION":"15.08853408","OBJECT_NAME":"STARLINK-5166","PERIOD":"95.437"},{"REF_FRAME":"TEME","REV_AT_EPOCH":"1782","BSTAR":"-0.00002965500000","INCLINATION":"53.2167","FILE":"3786577","OBJECT_TYPE":"PAYLOAD","TLE_LINE1":"1 54086U 22136AM  23042.78548375 -.00000760  00000-0 -29655-4 0  9991","CLASSIFICATION_TYPE":"U","NORAD_CAT_ID":"54086","SEMIMAJOR_AXIS":"6917.882","ECCENTRICITY":"0.00009390","MEAN_ANOMALY":"272.0936","EPHEMERIS_TYPE":"0","RCS_SIZE":"LARGE","CENTER_NAME":"EARTH","ELEMENT_SET_NO":"999","MEAN_MOTION":"15.08839545","MEAN_ELEMENT_THEORY":"SGP4","OBJECT_NAME":"STARLINK-5211","PERIOD":"95.438","EPOCH":"2023-02-11T18:51:05.796000","ARG_OF_PERICENTER":"88.0164","RA_OF_ASC_NODE":"315.6498","TLE_LINE2":"2 54086  53.2167 315.6498 0000939  88.0164 272.0936 15.08839545 17828","APOAPSIS":"540.396","COUNTRY_CODE":"US","OBJECT_ID":"2022-136AM","LAUNCH_DATE":"2022-10-20","MEAN_MOTION_DOT":"-0.00000760","TIME_SYSTEM":"UTC","MEAN_MOTION_DDOT":"0.0000000000000","DECAY_DATE":null,"GP_ID":"225187172","SITE":"AFETR","PERIAPSIS":"539.097"},{"REF_FRAME":"TEME","REV_AT_EPOCH":"1751","FILE":"3786144","OBJECT_TYPE":"PAYLOAD","BSTAR":"0.00019443000000","INCLINATION":"53.2187","SEMIMAJOR_AXIS":"6917.813","ECCENTRICITY":"0.00008870","TLE_LINE1":"1 54087U 22136AN  23042.11519048  .00002810  00000-0  19443-3 0  9993","CLASSIFICATION_TYPE":"U","NORAD_CAT_ID":"54087","CENTER_NAME":"EARTH","ELEMENT_SET_NO":"999","MEAN_ANOMALY":"252.6364","EPHEMERIS_TYPE":"0","RCS_SIZE":"MEDIUM","OBJECT_NAME":"STARLINK-5184","PERIOD":"95.436","MEAN_MOTION":"15.08862096","MEAN_ELEMENT_THEORY":"SGP4","EPOCH":"2023-02-11T02:45:52.457472","LAUNCH_DATE":"2022-10-20","MEAN_MOTION_DOT":"0.00002810","MEAN_MOTION_DDOT":"0.0000000000000","TIME_SYSTEM":"UTC","ARG_OF_PERICENTER":"107.4725","RA_OF_ASC_NODE":"333.5398","APOAPSIS":"540.291","TLE_LINE2":"2 54087  53.2187 333.5398 0000887 107.4725 252.6364 15.08862096 17512","OBJECT_ID":"2022-136AN","COUNTRY_CODE":"US","PERIAPSIS":"539.064","DECAY_DATE":null,"GP_ID":"225124796","SITE":"AFETR"},{"EPOCH":"2023-02-11T18:55:40.255104","MEAN_ELEMENT_THEORY":"SGP4","MEAN_MOTION":"15.08845222","OBJECT_NAME":"STARLINK-5153","PERIOD":"95.437","SITE":"AFETR","DECAY_DATE":null,"GP_ID":"225186171","PERIAPSIS":"538.952","APOAPSIS":"540.507","TLE_LINE2":"2 54088  53.2192 330.6309 0001124 110.8457 249.2656 15.08845222 17613","COUNTRY_CODE":"US","OBJECT_ID":"2022-136AP","RA_OF_ASC_NODE":"330.6309","ARG_OF_PERICENTER":"110.8457","MEAN_MOTION_DDOT":"0.0000000000000","TIME_SYSTEM":"UTC","MEAN_MOTION_DOT":"-0.00002058","LAUNCH_DATE":"2022-10-20","INCLINATION":"53.2192","BSTAR":"-0.00011126000000","OBJECT_TYPE":"PAYLOAD","FILE":"3786577","REF_FRAME":"TEME","REV_AT_EPOCH":"1761","EPHEMERIS_TYPE":"0","RCS_SIZE":"LARGE","MEAN_ANOMALY":"249.2656","CENTER_NAME":"EARTH","ELEMENT_SET_NO":"999","NORAD_CAT_ID":"54088","TLE_LINE1":"1 54088U 22136AP  23042.78866036 -.00002058  00000-0 -11126-3 0  9995","CLASSIFICATION_TYPE":"U","ECCENTRICITY":"0.00011240","SEMIMAJOR_AXIS":"6917.864"},{"SITE":"AFETR","GP_ID":"225186421","DECAY_DATE":null,"PERIAPSIS":"539.181","TLE_LINE2":"2 54089  53.2184 330.4945 0000841  81.0711 279.0377 15.08834422 17617","APOAPSIS":"540.344","OBJECT_ID":"2022-136AQ","COUNTRY_CODE":"US","ARG_OF_PERICENTER":"81.0711","RA_OF_ASC_NODE":"330.4945","MEAN_MOTION_DDOT":"0.0000000000000","TIME_SYSTEM":"UTC","MEAN_MOTION_DOT":"0.00001322","LAUNCH_DATE":"2022-10-20","EPOCH":"2023-02-11T18:23:50.168832","MEAN_ELEMENT_THEORY":"SGP4","MEAN_MOTION":"15.08834422","OBJECT_NAME":"STARLINK-5143","PERIOD":"95.438","EPHEMERIS_TYPE":"0","RCS_SIZE":"LARGE","MEAN_ANOMALY":"279.0377","CENTER_NAME":"EARTH","ELEMENT_SET_NO":"999","TLE_LINE1":"1 54089U 22136AQ  23042.76655288  .00001322  00000-0  10115-3 0  9997","CLASSIFICATION_TYPE":"U","NORAD_CAT_ID":"54089","ECCENTRICITY":"0.00008410","SEMIMAJOR_AXIS":"6917.897","INCLINATION":"53.2184","BSTAR":"0.00010115000000","OBJECT_TYPE":"PAYLOAD","FILE":"3786577","REF_FRAME":"TEME","REV_AT_EPOCH":"1761"},{"REV_AT_EPOCH":"1762","REF_FRAME":"TEME","INCLINATION":"53.2176","BSTAR":"-0.00044577000000","OBJECT_TYPE":"PAYLOAD","FILE":"3786577","NORAD_CAT_ID":"54090","TLE_LINE1":"1 54090U 22136AR  23042.83649101 -.00007376  00000-0 -44577-3 0  9990","CLASSIFICATION_TYPE":"U","ECCENTRICITY":"0.00007760","SEMIMAJOR_AXIS":"6917.863","RCS_SIZE":"LARGE","EPHEMERIS_TYPE":"0","MEAN_ANOMALY":"266.4402","ELEMENT_SET_NO":"999","CENTER_NAME":"EARTH","MEAN_ELEMENT_THEORY":"SGP4","MEAN_MOTION":"15.08845666","PERIOD":"95.437","OBJECT_NAME":"STARLINK-5177","EPOCH":"2023-02-11T20:04:32.823264","OBJECT_ID":"2022-136AR","COUNTRY_CODE":"US","TLE_LINE2":"2 54090  53.2176 330.2175 0000776  93.6679 266.4402 15.08845666 17624","APOAPSIS":"540.265","RA_OF_ASC_NODE":"330.2175","ARG_OF_PERICENTER":"93.6679","MEAN_MOTION_DDOT":"0.0000000000000","TIME_SYSTEM":"UTC","MEAN_MOTION_DOT":"-0.00007376","LAUNCH_DATE":"2022-10-20","SITE":"AFETR","GP_ID":"225187673","DECAY_DATE":null,"PERIAPSIS":"539.191"},{"ELEMENT_SET_NO":"999","CENTER_NAME":"EARTH","RCS_SIZE":"LARGE","EPHEMERIS_TYPE":"0","MEAN_ANOMALY":"255.3926","ECCENTRICITY":"0.00013450","SEMIMAJOR_AXIS":"6917.855","NORAD_CAT_ID":"54091","TLE_LINE1":"1 54091U 22136AS  23042.82269428 -.00000318  00000-0 -18753-5 0  9998","CLASSIFICATION_TYPE":"U","OBJECT_TYPE":"PAYLOAD","FILE":"3786577","INCLINATION":"53.2162","BSTAR":"-0.00000187530000","REV_AT_EPOCH":"1762","REF_FRAME":"TEME","PERIAPSIS":"538.790","SITE":"AFETR","GP_ID":"225187423","DECAY_DATE":null,"TIME_SYSTEM":"UTC","MEAN_MOTION_DDOT":"0.0000000000000","MEAN_MOTION_DOT":"-0.00000318","LAUNCH_DATE":"2022-10-20","OBJECT_ID":"2022-136AS","COUNTRY_CODE":"US","TLE_LINE2":"2 54091  53.2162 330.1406 0001345 104.7216 255.3926 15.08848303 17629","APOAPSIS":"540.650","RA_OF_ASC_NODE":"330.1406","ARG_OF_PERICENTER":"104.7216","EPOCH":"2023-02-11T19:44:40.785792","PERIOD":"95.437","OBJECT_NAME":"STARLINK-5221","MEAN_ELEMENT_THEORY":"SGP4","MEAN_MOTION":"15.08848303"},{"EPOCH":"2023-02-11T20:09:49.961376","MEAN_MOTION":"15.08844486","MEAN_ELEMENT_THEORY":"SGP4","PERIOD":"95.437","OBJECT_NAME":"STARLINK-5190","DECAY_DATE":null,"GP_ID":"225186672","SITE":"AFETR","PERIAPSIS":"539.012","RA_OF_ASC_NODE":"330.2441","ARG_OF_PERICENTER":"50.7579","COUNTRY_CODE":"US","OBJECT_ID":"2022-136AT","APOAPSIS":"540.452","TLE_LINE2":"2 54092  53.2180 330.2441 0001041  50.7579 309.3505 15.08844486 17626","LAUNCH_DATE":"2022-10-20","MEAN_MOTION_DOT":"-0.00000336","MEAN_MOTION_DDOT":"0.0000000000000","TIME_SYSTEM":"UTC","BSTAR":"-0.00000302760000","INCLINATION":"53.2180","FILE":"3786577","OBJECT_TYPE":"PAYLOAD","REV_AT_EPOCH":"1762","REF_FRAME":"TEME","MEAN_ANOMALY":"309.3505","RCS_SIZE":"LARGE","EPHEMERIS_TYPE":"0","ELEMENT_SET_NO":"999","CENTER_NAME":"EARTH","TLE_LINE1":"1 54092U 22136AT  23042.84016159 -.00000336  00000-0 -30276-5 0  9996","NORAD_CAT_ID":"54092","CLASSIFICATION_TYPE":"U","SEMIMAJOR_AXIS":"6917.867","ECCENTRICITY":"0.00010410"},{"RCS_SIZE":"LARGE","EPHEMERIS_TYPE":"0","MEAN_ANOMALY":"256.6281","ELEMENT_SET_NO":"999","CENTER_NAME":"EARTH","NORAD_CAT_ID":"54093","TLE_LINE1":"1 54093U 22136AU  23042.82173586  .00000272  00000-0  35151-4 0  9996","CLASSIFICATION_TYPE":"U","ECCENTRICITY":"0.00012980","SEMIMAJOR_AXIS":"6917.861","INCLINATION":"53.2170","BSTAR":"0.00003515100000","OBJECT_TYPE":"PAYLOAD","FILE":"3786577","REV_AT_EPOCH":"1762","REF_FRAME":"TEME","SITE":"AFETR","GP_ID":"225186922","DECAY_DATE":null,"PERIAPSIS":"538.828","OBJECT_ID":"2022-136AU","COUNTRY_CODE":"US","TLE_LINE2":"2 54093  53.2170 330.1328 0001298 103.4855 256.6281 15.08846493 17621","APOAPSIS":"540.623","ARG_OF_PERICENTER":"103.4855","RA_OF_ASC_NODE":"330.1328","MEAN_MOTION_DDOT":"0.0000000000000","TIME_SYSTEM":"UTC","LAUNCH_DATE":"2022-10-20","MEAN_MOTION_DOT":"0.00000272","EPOCH":"2023-02-11T19:43:17.978304","MEAN_ELEMENT_THEORY":"SGP4","MEAN_MOTION":"15.08846493","PERIOD":"95.437","OBJECT_NAME":"STARLINK-5213"},{"CLASSIFICATION_TYPE":"U","TLE_LINE1":"1 54094U 22136AV  23042.82911310 -.00000696  00000-0 -25640-4 0  9996","NORAD_CAT_ID":"54094","SEMIMAJOR_AXIS":"6917.873","ECCENTRICITY":"0.00009630","MEAN_ANOMALY":"280.9717","RCS_SIZE":"LARGE","EPHEMERIS_TYPE":"0","ELEMENT_SET_NO":"999","CENTER_NAME":"EARTH","REV_AT_EPOCH":"1762","REF_FRAME":"TEME","BSTAR":"-0.00002564000000","INCLINATION":"53.2180","FILE":"3786577","OBJECT_TYPE":"PAYLOAD","ARG_OF_PERICENTER":"79.1383","RA_OF_ASC_NODE":"330.1821","COUNTRY_CODE":"US","OBJECT_ID":"2022-136AV","TLE_LINE2":"2 54094  53.2180 330.1821 0000963  79.1383 280.9717 15.08842470 17629","APOAPSIS":"540.404","LAUNCH_DATE":"2022-10-20","MEAN_MOTION_DOT":"-0.00000696","MEAN_MOTION_DDOT":"0.0000000000000","TIME_SYSTEM":"UTC","GP_ID":"225187173","DECAY_DATE":null,"SITE":"AFETR","PERIAPSIS":"539.072","MEAN_MOTION":"15.08842470","MEAN_ELEMENT_THEORY":"SGP4","PERIOD":"95.437","OBJECT_NAME":"STARLINK-5219","EPOCH":"2023-02-11T19:53:55.371840"}];
